STARLINK-36230          
1 67075U 25298A   26008.50002314 -.01783613  00000+0 -41327-1 0  9990
2 67075  70.0001 174.9505 0003509 261.1208  97.0939 15.45799511  5271
STARLINK-36240          
1 67076U 25298B   26007.72373718 -.00052487  00000+0 -86094-3 0  9992
2 67076  70.0003 177.0581 0002583 256.0757 104.0142 15.52363561  3863
STARLINK-36243          
1 67077U 25298C   26008.50002314  .00039572  00000+0  90194-3 0  9995
2 67077  70.0003 175.0022 0003745 273.4827  42.5557 15.42725534  5278
STARLINK-36236          
1 67078U 25298D   26008.50002314  .00036307  00000+0  82934-3 0  9992
2 67078  70.0003 174.9762 0003155 269.0057  70.1720 15.42684294  5275
STARLINK-36159          
1 67079U 25298E   26008.48415573  .00055183  00000+0  12518-2 0  9998
2 67079  70.0001 175.3054 0003884 275.4868  84.5871 15.42773787  3970
STARLINK-36158          
1 67080U 25298F   26008.50002314  .00064533  00000+0  14635-2 0  9999
2 67080  70.0004 175.0257 0003871 268.1314  25.9226 15.42734107  5213
STARLINK-35864          
1 67081U 25298G   26008.50002314  .00038308  00000+0  87453-3 0  9990
2 67081  70.0005 175.0523 0003311 270.1313   1.0398 15.42687249  5277
STARLINK-36035          
1 67082U 25298H   26008.50002314  .00045146  00000+0  10293-2 0  9996
2 67082  70.0006 175.0777 0003067 266.3509 342.8367 15.42682737  5271
STARLINK-36170          
1 67083U 25298J   26008.49389278  .06083960  00000+0  69053-1 0  9991
2 67083  69.9999 174.9289 0036320 221.6540 138.1883 15.57051785  3987
STARLINK-36166          
1 67084U 25298K   26008.17197452  .00113547  00000+0  18175-2 0  9997
2 67084  70.0004 175.8114 0003789 279.7240  80.3519 15.52588032  3933
STARLINK-35794          
1 67085U 25298L   26008.19991838  .00056005  00000+0  12696-2 0  9997
2 67085  70.0008 175.9134 0003338 268.5503  91.5297 15.42791106  3933
STARLINK-35841          
1 67086U 25298M   26008.42901006  .00148867  00000+0  23669-2 0  9992
2 67086  70.0003 175.1029 0005570 281.7609  78.2953 15.52633916  3978
