CCSDS_OMM_VERS = 2.0
CREATION_DATE  = 
ORIGINATOR     = 

OBJECT_NAME    = STARLINK-36230
OBJECT_ID      = 2025-298A
CENTER_NAME    = EARTH
REF_FRAME      = TEME
TIME_SYSTEM    = UTC
MEAN_ELEMENT_THEORY = SGP/SGP4

EPOCH          = 2026-01-08T12:00:01.999296
MEAN_MOTION    = 15.45799511
ECCENTRICITY   = .0003509
INCLINATION    = 70.0001
RA_OF_ASC_NODE = 174.9505
ARG_OF_PERICENTER = 261.1208
MEAN_ANOMALY   = 97.0939

EPHEMERIS_TYPE = 0
CLASSIFICATION_TYPE = U
NORAD_CAT_ID   = 67075
ELEMENT_SET_NO = 999
REV_AT_EPOCH   = 527
BSTAR          = -.41327E-1
MEAN_MOTION_DOT = -.1783613E-1
MEAN_MOTION_DDOT = 0

CCSDS_OMM_VERS = 2.0
CREATION_DATE  = 
ORIGINATOR     = 

OBJECT_NAME    = STARLINK-36240
OBJECT_ID      = 2025-298B
CENTER_NAME    = EARTH
REF_FRAME      = TEME
TIME_SYSTEM    = UTC
MEAN_ELEMENT_THEORY = SGP/SGP4

EPOCH          = 2026-01-07T17:22:10.892352
MEAN_MOTION    = 15.52363561
ECCENTRICITY   = .00025831
INCLINATION    = 70.0003
RA_OF_ASC_NODE = 177.0581
ARG_OF_PERICENTER = 256.0757
MEAN_ANOMALY   = 104.0142

EPHEMERIS_TYPE = 0
CLASSIFICATION_TYPE = U
NORAD_CAT_ID   = 67076
ELEMENT_SET_NO = 999
REV_AT_EPOCH   = 386
BSTAR          = -.86094253E-3
MEAN_MOTION_DOT = -.52487E-3
MEAN_MOTION_DDOT = 0

CCSDS_OMM_VERS = 2.0
CREATION_DATE  = 
ORIGINATOR     = 

OBJECT_NAME    = STARLINK-36243
OBJECT_ID      = 2025-298C
CENTER_NAME    = EARTH
REF_FRAME      = TEME
TIME_SYSTEM    = UTC
MEAN_ELEMENT_THEORY = SGP/SGP4

EPOCH          = 2026-01-08T12:00:01.999296
MEAN_MOTION    = 15.42725534
ECCENTRICITY   = .0003745
INCLINATION    = 70.0003
RA_OF_ASC_NODE = 175.0022
ARG_OF_PERICENTER = 273.4827
MEAN_ANOMALY   = 42.5557

EPHEMERIS_TYPE = 0
CLASSIFICATION_TYPE = U
NORAD_CAT_ID   = 67077
ELEMENT_SET_NO = 999
REV_AT_EPOCH   = 527
BSTAR          = .90194E-3
MEAN_MOTION_DOT = .39572E-3
MEAN_MOTION_DDOT = 0

CCSDS_OMM_VERS = 2.0
CREATION_DATE  = 
ORIGINATOR     = 

OBJECT_NAME    = STARLINK-36236
OBJECT_ID      = 2025-298D
CENTER_NAME    = EARTH
REF_FRAME      = TEME
TIME_SYSTEM    = UTC
MEAN_ELEMENT_THEORY = SGP/SGP4

EPOCH          = 2026-01-08T12:00:01.999296
MEAN_MOTION    = 15.42684294
ECCENTRICITY   = .0003155
INCLINATION    = 70.0003
RA_OF_ASC_NODE = 174.9762
ARG_OF_PERICENTER = 269.0057
MEAN_ANOMALY   = 70.1720

EPHEMERIS_TYPE = 0
CLASSIFICATION_TYPE = U
NORAD_CAT_ID   = 67078
ELEMENT_SET_NO = 999
REV_AT_EPOCH   = 527
BSTAR          = .82934E-3
MEAN_MOTION_DOT = .36307E-3
MEAN_MOTION_DDOT = 0

CCSDS_OMM_VERS = 2.0
CREATION_DATE  = 
ORIGINATOR     = 

OBJECT_NAME    = STARLINK-36159
OBJECT_ID      = 2025-298E
CENTER_NAME    = EARTH
REF_FRAME      = TEME
TIME_SYSTEM    = UTC
MEAN_ELEMENT_THEORY = SGP/SGP4

EPOCH          = 2026-01-08T11:37:11.055072
MEAN_MOTION    = 15.42773787
ECCENTRICITY   = .0003884
INCLINATION    = 70.0001
RA_OF_ASC_NODE = 175.3054
ARG_OF_PERICENTER = 275.4868
MEAN_ANOMALY   = 84.5871

EPHEMERIS_TYPE = 0
CLASSIFICATION_TYPE = U
NORAD_CAT_ID   = 67079
ELEMENT_SET_NO = 999
REV_AT_EPOCH   = 397
BSTAR          = .12518E-2
MEAN_MOTION_DOT = .55183E-3
MEAN_MOTION_DDOT = 0

CCSDS_OMM_VERS = 2.0
CREATION_DATE  = 
ORIGINATOR     = 

OBJECT_NAME    = STARLINK-36158
OBJECT_ID      = 2025-298F
CENTER_NAME    = EARTH
REF_FRAME      = TEME
TIME_SYSTEM    = UTC
MEAN_ELEMENT_THEORY = SGP/SGP4

EPOCH          = 2026-01-08T12:00:01.999296
MEAN_MOTION    = 15.42734107
ECCENTRICITY   = .0003871
INCLINATION    = 70.0004
RA_OF_ASC_NODE = 175.0257
ARG_OF_PERICENTER = 268.1314
MEAN_ANOMALY   = 25.9226

EPHEMERIS_TYPE = 0
CLASSIFICATION_TYPE = U
NORAD_CAT_ID   = 67080
ELEMENT_SET_NO = 999
REV_AT_EPOCH   = 521
BSTAR          = .14635E-2
MEAN_MOTION_DOT = .64533E-3
MEAN_MOTION_DDOT = 0

CCSDS_OMM_VERS = 2.0
CREATION_DATE  = 
ORIGINATOR     = 

OBJECT_NAME    = STARLINK-35864
OBJECT_ID      = 2025-298G
CENTER_NAME    = EARTH
REF_FRAME      = TEME
TIME_SYSTEM    = UTC
MEAN_ELEMENT_THEORY = SGP/SGP4

EPOCH          = 2026-01-08T12:00:01.999296
MEAN_MOTION    = 15.42687249
ECCENTRICITY   = .0003311
INCLINATION    = 70.0005
RA_OF_ASC_NODE = 175.0523
ARG_OF_PERICENTER = 270.1313
MEAN_ANOMALY   = 1.0398

EPHEMERIS_TYPE = 0
CLASSIFICATION_TYPE = U
NORAD_CAT_ID   = 67081
ELEMENT_SET_NO = 999
REV_AT_EPOCH   = 527
BSTAR          = .87453E-3
MEAN_MOTION_DOT = .38308E-3
MEAN_MOTION_DDOT = 0

CCSDS_OMM_VERS = 2.0
CREATION_DATE  = 
ORIGINATOR     = 

OBJECT_NAME    = STARLINK-36035
OBJECT_ID      = 2025-298H
CENTER_NAME    = EARTH
REF_FRAME      = TEME
TIME_SYSTEM    = UTC
MEAN_ELEMENT_THEORY = SGP/SGP4

EPOCH          = 2026-01-08T12:00:01.999296
MEAN_MOTION    = 15.42682737
ECCENTRICITY   = .0003067
INCLINATION    = 70.0006
RA_OF_ASC_NODE = 175.0777
ARG_OF_PERICENTER = 266.3509
MEAN_ANOMALY   = 342.8367

EPHEMERIS_TYPE = 0
CLASSIFICATION_TYPE = U
NORAD_CAT_ID   = 67082
ELEMENT_SET_NO = 999
REV_AT_EPOCH   = 527
BSTAR          = .10293E-2
MEAN_MOTION_DOT = .45146E-3
MEAN_MOTION_DDOT = 0

CCSDS_OMM_VERS = 2.0
CREATION_DATE  = 
ORIGINATOR     = 

OBJECT_NAME    = STARLINK-36170
OBJECT_ID      = 2025-298J
CENTER_NAME    = EARTH
REF_FRAME      = TEME
TIME_SYSTEM    = UTC
MEAN_ELEMENT_THEORY = SGP/SGP4

EPOCH          = 2026-01-08T11:51:12.336192
MEAN_MOTION    = 15.57051785
ECCENTRICITY   = .003632
INCLINATION    = 69.9999
RA_OF_ASC_NODE = 174.9289
ARG_OF_PERICENTER = 221.6540
MEAN_ANOMALY   = 138.1883

EPHEMERIS_TYPE = 0
CLASSIFICATION_TYPE = U
NORAD_CAT_ID   = 67083
ELEMENT_SET_NO = 999
REV_AT_EPOCH   = 398
BSTAR          = .69053E-1
MEAN_MOTION_DOT = .608396E-1
MEAN_MOTION_DDOT = 0

CCSDS_OMM_VERS = 2.0
CREATION_DATE  = 
ORIGINATOR     = 

OBJECT_NAME    = STARLINK-36166
OBJECT_ID      = 2025-298K
CENTER_NAME    = EARTH
REF_FRAME      = TEME
TIME_SYSTEM    = UTC
MEAN_ELEMENT_THEORY = SGP/SGP4

EPOCH          = 2026-01-08T04:07:38.598528
MEAN_MOTION    = 15.52588032
ECCENTRICITY   = .00037895
INCLINATION    = 70.0004
RA_OF_ASC_NODE = 175.8114
ARG_OF_PERICENTER = 279.7240
MEAN_ANOMALY   = 80.3519

EPHEMERIS_TYPE = 0
CLASSIFICATION_TYPE = U
NORAD_CAT_ID   = 67084
ELEMENT_SET_NO = 999
REV_AT_EPOCH   = 393
BSTAR          = .18175342E-2
MEAN_MOTION_DOT = .113547E-2
MEAN_MOTION_DDOT = 0

CCSDS_OMM_VERS = 2.0
CREATION_DATE  = 
ORIGINATOR     = 

OBJECT_NAME    = STARLINK-35794
OBJECT_ID      = 2025-298L
CENTER_NAME    = EARTH
REF_FRAME      = TEME
TIME_SYSTEM    = UTC
MEAN_ELEMENT_THEORY = SGP/SGP4

EPOCH          = 2026-01-08T04:47:52.948032
MEAN_MOTION    = 15.42791106
ECCENTRICITY   = .0003338
INCLINATION    = 70.0008
RA_OF_ASC_NODE = 175.9134
ARG_OF_PERICENTER = 268.5503
MEAN_ANOMALY   = 91.5297

EPHEMERIS_TYPE = 0
CLASSIFICATION_TYPE = U
NORAD_CAT_ID   = 67085
ELEMENT_SET_NO = 999
REV_AT_EPOCH   = 393
BSTAR          = .12696E-2
MEAN_MOTION_DOT = .56005E-3
MEAN_MOTION_DDOT = 0

CCSDS_OMM_VERS = 2.0
CREATION_DATE  = 
ORIGINATOR     = 

OBJECT_NAME    = STARLINK-35841
OBJECT_ID      = 2025-298M
CENTER_NAME    = EARTH
REF_FRAME      = TEME
TIME_SYSTEM    = UTC
MEAN_ELEMENT_THEORY = SGP/SGP4

EPOCH          = 2026-01-08T10:17:46.469184
MEAN_MOTION    = 15.52633916
ECCENTRICITY   = .000557
INCLINATION    = 70.0003
RA_OF_ASC_NODE = 175.1029
ARG_OF_PERICENTER = 281.7609
MEAN_ANOMALY   = 78.2953

EPHEMERIS_TYPE = 0
CLASSIFICATION_TYPE = U
NORAD_CAT_ID   = 67086
ELEMENT_SET_NO = 999
REV_AT_EPOCH   = 397
BSTAR          = .23669E-2
MEAN_MOTION_DOT = .148867E-2
MEAN_MOTION_DDOT = 0

